ONEWEB-0228             
1 48780U 21045P   24073.24633643  .00000032  00000+0  51412-4 0  9997
2 48780  87.8957  63.5522 0001942  82.4597 277.6754 13.15547118136865
